STARLINK-1635
1 46172U 20057BH  26060.95357001  .00114010  00000+0  14806-2 0  9995
2 46172  53.0450 295.2587 0003132  24.5853 335.5308 15.57976993306943
